INTERCOSMOS 24          
1 20261U 89080A   25201.58592895  .00000597  00000+0  16617-3 0  9991
2 20261  82.6032 255.3355 1191322 111.2542 261.9830 12.59088561637580
SL-14 R/B               
1 20262U 89080C   25201.43048774  .00000108  00000+0  28622-4 0  9996
2 20262  82.5960 322.3344 1230869 355.6814   3.4368 12.50318338631127
DELTA 1 R/B             
1 20323U 89089B   25201.42817794  .00000194  00000+0  56834-4 0  9999
2 20323  97.0999  80.5336 0070354 135.3877 225.3013 14.50415448862067
ARIANE 40 R/B           
1 20443U 90005H   25201.41826625  .00000182  00000+0  71808-4 0  9999
2 20443  98.3442 263.5381 0010266 176.6094 183.5166 14.39657058859382
DELTA 2 R/B(1)          
1 20453U 90008B   25201.46354428  .00023082  00000+0  49949-3 0  9999
2 20453  35.6085 230.3013 0135395 300.6141  58.1296 15.34299935890239
COSMOS 2058             
1 20465U 90010A   25201.53678197  .00002510  00000+0  15667-3 0  9998
2 20465  82.4751 275.6247 0009029  63.3355 296.8797 15.09056257907200
SL-14 R/B               
1 20466U 90010B   25201.51322985  .00000355  00000+0  40380-4 0  9994
2 20466  82.5039 125.4046 0019621 349.7227  10.3583 14.83284541915120
SL-14 R/B               
1 20511U 90018B   25201.37575803  .00000283  00000+0  32691-4 0  9992
2 20511  82.5203  80.2067 0017456 132.9490 227.3191 14.81866842888170
HST                     
1 20580U 90037B   25201.60732357  .00004155  00000+0  15074-3 0  9991
2 20580  28.4662 178.3329 0002262  99.7151 260.3699 15.25601229737793
SL-16 R/B               
1 20625U 90046B   25201.32966879 -.00000234  00000+0 -96125-4 0  9991
2 20625  70.9985  65.8935 0016248 294.0314  65.9107 14.14967710815524
COSMOS 2084             
1 20663U 90055A   25200.86276792  .00002219  00000+0  17009-3 0  9995
2 20663  62.7909  48.5534 0056030 157.9081 202.4452 15.03815588901289
SL-6 R/B(2)             
1 20666U 90055D   25201.61958938  .00001621  00000+0  13709-3 0  9990
2 20666  62.7843 322.1152 0021301 200.9268 159.0961 15.02145484903313
SL-8 R/B                
1 20775U 90078B   25201.45017480  .00015250  00000+0  49520-3 0  9999
2 20775  82.9076  98.5571 0400872  69.6682 294.7125 14.79124326774858
SL-8 R/B                
1 21088U 91006B   25201.47575832  .00000101  00000+0  86601-4 0  9992
2 21088  82.9445 342.7882 0021668 328.6541  93.4081 13.77465049732103
OKEAN-3                 
1 21397U 91039A   25201.45791068  .00001980  00000+0  14517-3 0  9992
2 21397  82.5155 201.4981 0016028  47.0102 313.2464 15.02905347830130
COSMOS 2151             
1 21422U 91042A   25201.52952823  .00001397  00000+0  11307-3 0  9997
2 21422  82.4987 307.3567 0013895 121.2648 238.9939 14.98946087828403
SL-14 R/B               
1 21423U 91042B   25201.51592999  .00000258  00000+0  29907-4 0  9992
2 21423  82.4920  77.8818 0015593 285.7297  74.2196 14.81565712818692
ERS-1                   
1 21574U 91050A   25201.51204007  .00000240  00000+0  91906-4 0  9997
2 21574  98.7922 208.8782 0032289 168.8472 191.3438 14.39215979782335
ARIANE 40 R/B           
1 21610U 91050F   25201.42116762  .00000218  00000+0  78064-4 0  9993
2 21610  98.2375 256.9173 0004280  69.2330 290.9319 14.42657155785504
INTERCOSMOS 25          
1 21819U 91086A   25201.44192287  .00000351  00000+0  69862-4 0  9995
2 21819  82.6046  90.3554 1489318 257.3044  85.8026 12.11119796468560
SL-8 R/B                
1 21876U 92008B   25201.41050175  .00000079  00000+0  65464-4 0  9990
2 21876  82.9255  80.5296 0036023  64.3230 108.2640 13.75937189677474
SL-8 R/B                
1 21938U 92020B   25201.64024812  .00000086  00000+0  73892-4 0  9999
2 21938  82.9329 326.0951 0028163 223.4968 147.5118 13.75515935669235
USA 81                  
1 21949U 92023A   25201.58198712  .00000123  00000+0  38200-4 0  9994
2 21949  85.0061 265.3108 0002675  82.0241 278.1255 14.32253842 61561
COSMOS 2219             
1 22219U 92076A   25201.56586471 -.00000097  00000+0 -26321-4 0  9997
2 22219  71.0614 143.2938 0018682 202.4060 157.6249 14.14038122685566
SL-16 R/B               
1 22220U 92076B   25201.62143201 -.00000106  00000+0 -29225-4 0  9993
2 22220  71.0018 317.2039 0010549  88.2447 283.3555 14.16812175688968
COSMOS 2221             
1 22236U 92080A   25201.54171858  .00001437  00000+0  12903-3 0  9995
2 22236  82.5062 141.1893 0012912 250.7792 109.2032 14.94979706746093
SL-16 R/B               
1 22285U 92093B   25201.51343356 -.00000242  00000+0 -99789-4 0  9997
2 22285  71.0217 131.6498 0006363 290.8702  69.1739 14.15399692680623
COSMOS 2228             
1 22286U 92094A   25201.56916894  .00001526  00000+0  13390-3 0  9994
2 22286  82.5182  99.3216 0018863   8.7088 351.4457 14.95831427741347
SL-16 R/B               
1 22566U 93016B   25201.46010954 -.00000265  00000+0 -11141-3 0  9994
2 22566  71.0089 342.9160 0012026 308.9402  51.0648 14.15262029669311
COSMOS 2242             
1 22626U 93024A   25201.52483895  .00001614  00000+0  14389-3 0  9999
2 22626  82.5206 128.5271 0017152  12.0776 348.0853 14.95279144746002
SL-16 R/B               
1 22803U 93059B   25201.54292000 -.00000221  00000+0 -85356-4 0  9990
2 22803  70.9905 140.6608 0018199 210.5970 149.4094 14.17180769646904
ARIANE 40 R/B           
1 22830U 93061H   25201.42752883  .00000137  00000+0  66494-4 0  9996
2 22830  98.5253 269.4620 0009620 248.9374 111.0781 14.32678373660849
COSMOS 2278             
1 23087U 94023A   25201.54707992 -.00000104  00000+0 -29815-4 0  9996
2 23087  71.0537 300.7585 0008186   9.6505 350.4774 14.14302564611986
SL-16 R/B               
1 23088U 94023B   25201.41812451 -.00000247  00000+0 -10307-3 0  9993
2 23088  70.9978 198.6606 0005672 282.4198  77.6290 14.14971330613232
SL-16 R/B               
1 23343U 94074B   25201.36012264  .00000327  00000+0  50911-4 0  9994
2 23343  97.7376 236.2741 0005182 254.3110 117.2655 14.79071828652909
SL-16 R/B               
1 23405U 94077B   25201.49029164 -.00000280  00000+0 -11874-3 0  9991
2 23405  70.9833 120.9784 0002717 210.1069 149.9898 14.15522336583379
ARIANE 40+ R/B          
1 23561U 95021B   25201.46522416  .00000195  00000+0  76472-4 0  9998
2 23561  98.4821 270.6770 0007947 114.5171 256.1018 14.39552102585831
SL-16 R/B               
1 23705U 95058B   25201.55644075  .00000139  00000+0  95604-4 0  9990
2 23705  71.0223 307.6005 0010740 118.3117 241.9090 14.15451077535002
SL-16 R/B               
1 24298U 96051B   25201.58653748 -.00000180  00000+0 -70628-4 0  9999
2 24298  70.7668 306.4779 0013618 122.9359 237.3072 14.12406516488876
ORBVIEW 2 (SEASTAR)     
1 24883U 97037A   25201.50072442  .00000196  00000+0  84748-4 0  9995
2 24883  98.8300 355.0628 0002831  46.4707 313.6713 14.35271302475161
SL-16 R/B               
1 25400U 98043G   25201.55494597  .00000032  00000+0  32238-4 0  9999
2 25400  98.7889 148.7638 0009341 334.1479  25.9233 14.25978686405905
SL-16 R/B               
1 25407U 98045B   25201.53981705  .00000134  00000+0  92001-4 0  9995
2 25407  71.0128 309.7631 0007099   2.3764 357.7392 14.16147460394236
ISS (ZARYA)             
1 25544U 98067A   25201.26732422  .00007301  00000+0  13592-3 0  9991
2 25544  51.6337 143.1027 0002198  97.0892 263.0347 15.49967702520293
CZ-4B R/B               
1 25732U 99025C   25201.49942052  .00000022  00000+0  31775-4 0  9999
2 25732  98.6977 245.8340 0036063 293.1505 200.1969 14.18198335355391
OKEAN-O                 
1 25860U 99039A   25201.42962056  .00000487  00000+0  71535-4 0  9998
2 25860  97.9814 258.2209 0001593  71.4990 288.6394 14.79846108400032
SL-16 R/B               
1 25861U 99039B   25201.43188062  .00000360  00000+0  52989-4 0  9999
2 25861  98.0339 255.3957 0013581 292.7793  67.1984 14.81316996402479
DELTA 2 R/B             
1 25876U 99041E   25201.59594827  .00002509  00000+0  44387-3 0  9994
2 25876  51.7604 147.5625 0506963  23.9155 338.4460 14.10832417330259
HELIOS 1B               
1 25977U 99064A   25201.44353573  .00000980  00000+0  11719-3 0  9990
2 25977  98.1909  91.8098 0002496  93.3936 266.7564 14.86561542650747
TERRA                   
1 25994U 99068A   25201.61111580  .00000312  00000+0  73170-4 0  9991
2 25994  97.9962 258.4352 0002383 161.2396 354.6957 14.60736833361196
SL-16 R/B               
1 26070U 00006B   25201.49514984 -.00000257  00000+0 -10641-3 0  9995
2 26070  71.0001 226.0412 0016496 183.3874 176.7140 14.15779650315698
TITAN 4B R/B            
1 26474U 00047B   25201.61907758  .00002213  00000+0  15118-3 0  9993
2 26474  67.9911 331.9310 0047530 298.5101  61.1265 15.07369047357911
ENVISAT                 
1 27386U 02009A   25201.51816373  .00000067  00000+0  35471-4 0  9997
2 27386  98.3356 156.1490 0001333  83.5065  30.4775 14.38928616225783
IDEFIX & ARIANE 42P R/B 
1 27422U 02021B   25201.55379896  .00000167  00000+0  80253-4 0  9999
2 27422  98.5610 138.3103 0012397 145.9660 214.2320 14.30810503210822
AQUA                    
1 27424U 02022A   25201.63036091  .00000672  00000+0  14570-3 0  9997
2 27424  98.3797 160.4063 0000901  58.6837  50.8034 14.61354007234832
CZ-4B R/B               
1 27432U 02024C   25201.41582992  .00000008  00000+0  27322-4 0  9993
2 27432  98.9214 250.5014 0049502 323.3465  47.0582 14.14491581196400
MIDORI II (ADEOS-II)    
1 27597U 02056A   25201.57988284  .00000197  00000+0  95705-4 0  9990
2 27597  98.7395 153.9861 0000991  29.2758 330.8479 14.29069964177142
H-2A R/B                
1 27601U 02056E   25201.51700093  .00000214  00000+0  89400-4 0  9995
2 27601  98.2813 166.2633 0071337 132.8679 338.6958 14.33526962180847
CZ-4B R/B               
1 28059U 03049C   25201.47381280  .00000235  00000+0  65895-4 0  9999
2 28059  98.6614 182.6752 0047620 219.3485 140.4247 14.54709624152835
CZ-2C R/B               
1 28222U 04012C   25201.07549931  .00017876  00000+0  36968-3 0  9994
2 28222  97.7644 242.7658 0024092  80.2825 280.1142 15.45555607168164
